{
    "week": 289,
    "satellites": [
        {
            "Name": "COSMOS 2545 (760)",
            "Line1": "1 45358U 20018A   24293.87928809 -.00000057  00000+0  00000+0 0  9998",
            "Line2": "2 45358  64.6894 333.6152 0012099 243.8121 116.1272  2.13102445 35762",
            "SatelliteNumber": "45358",
            "Classification": "U",
            "LaunchYear": "20",
            "LaunchNumber": "018",
            "PieceOfLaunch": "A",
            "EpochYear": "24",
            "EpochDay": 293.87928809,
            "FirstDerivativeMeanMotion": -5.7e-07,
            "SecondDerivativeMeanMotion": "00000+0",
            "BSTAR": "00000+0",
            "SetNumber": "999",
            "Inclination": 64.6894,
            "RAAN": 333.6152,
            "Eccentricity": 0.0012099,
            "ArgumentOfPerigee": 243.8121,
            "MeanAnomaly": 116.1272,
            "MeanMotion": 2.13102445,
            "RevolutionNumber": "3576"
        },
        {
            "Name": "COSMOS 2547 (705K)",
            "Line1": "1 46805U 20075A   24294.06586639  .00000022  00000+0  00000+0 0  9993",
            "Line2": "2 46805  64.5978 212.6904 0007319 238.8775 121.0821  2.13102673 31013",
            "SatelliteNumber": "46805",
            "Classification": "U",
            "LaunchYear": "20",
            "LaunchNumber": "075",
            "PieceOfLaunch": "A",
            "EpochYear": "24",
            "EpochDay": 294.06586639,
            "FirstDerivativeMeanMotion": 2.2e-07,
            "SecondDerivativeMeanMotion": "00000+0",
            "BSTAR": "00000+0",
            "SetNumber": "999",
            "Inclination": 64.5978,
            "RAAN": 212.6904,
            "Eccentricity": 0.0007319,
            "ArgumentOfPerigee": 238.8775,
            "MeanAnomaly": 121.0821,
            "MeanMotion": 2.13102673,
            "RevolutionNumber": "3101"
        },
        {
            "Name": "COSMOS 2557 (706K)",
            "Line1": "1 52984U 22075A   24293.76245244 -.00000059  00000+0  00000+0 0  9991",
            "Line2": "2 52984  64.6195 335.7378 0013618 274.3122  85.5977  2.13102085 17817",
            "SatelliteNumber": "52984",
            "Classification": "U",
            "LaunchYear": "22",
            "LaunchNumber": "075",
            "PieceOfLaunch": "A",
            "EpochYear": "24",
            "EpochDay": 293.76245244,
            "FirstDerivativeMeanMotion": -5.9e-07,
            "SecondDerivativeMeanMotion": "00000+0",
            "BSTAR": "00000+0",
            "SetNumber": "999",
            "Inclination": 64.6195,
            "RAAN": 335.7378,
            "Eccentricity": 0.0013618,
            "ArgumentOfPerigee": 274.3122,
            "MeanAnomaly": 85.5977,
            "MeanMotion": 2.13102085,
            "RevolutionNumber": "1781"
        },
        {
            "Name": "COSMOS 2559 (707K)",
            "Line1": "1 54031U 22130A   24294.17501219 -.00000061  00000+0  00000+0 0  9994",
            "Line2": "2 54031  64.5912 335.8366 0008375 227.4935 132.4997  2.13101358 15792",
            "SatelliteNumber": "54031",
            "Classification": "U",
            "LaunchYear": "22",
            "LaunchNumber": "130",
            "PieceOfLaunch": "A",
            "EpochYear": "24",
            "EpochDay": 294.17501219,
            "FirstDerivativeMeanMotion": -6.1e-07,
            "SecondDerivativeMeanMotion": "00000+0",
            "BSTAR": "00000+0",
            "SetNumber": "999",
            "Inclination": 64.5912,
            "RAAN": 335.8366,
            "Eccentricity": 0.0008375,
            "ArgumentOfPerigee": 227.4935,
            "MeanAnomaly": 132.4997,
            "MeanMotion": 2.13101358,
            "RevolutionNumber": "1579"
        },
        {
            "Name": "COSMOS 2564 (761)",
            "Line1": "1 54377U 22161A   24294.36531950  .00000020  00000+0  00000+0 0  9991",
            "Line2": "2 54377  64.7392 212.8076 0009492 218.4102 141.5542  2.13102086 14748",
            "SatelliteNumber": "54377",
            "Classification": "U",
            "LaunchYear": "22",
            "LaunchNumber": "161",
            "PieceOfLaunch": "A",
            "EpochYear": "24",
            "EpochDay": 294.3653195,
            "FirstDerivativeMeanMotion": 2e-07,
            "SecondDerivativeMeanMotion": "00000+0",
            "BSTAR": "00000+0",
            "SetNumber": "999",
            "Inclination": 64.7392,
            "RAAN": 212.8076,
            "Eccentricity": 0.0009492,
            "ArgumentOfPerigee": 218.4102,
            "MeanAnomaly": 141.5542,
            "MeanMotion": 2.13102086,
            "RevolutionNumber": "1474"
        },
        {
            "Name": "COSMOS 2569 (703K)",
            "Line1": "1 57517U 23114A   24294.85094712  .00000027  00000+0  00000+0 0  9990",
            "Line2": "2 57517  64.9761  93.0544 0008655 292.0102  67.8984  2.13103960  9382",
            "SatelliteNumber": "57517",
            "Classification": "U",
            "LaunchYear": "23",
            "LaunchNumber": "114",
            "PieceOfLaunch": "A",
            "EpochYear": "24",
            "EpochDay": 294.85094712,
            "FirstDerivativeMeanMotion": 2.7e-07,
            "SecondDerivativeMeanMotion": "00000+0",
            "BSTAR": "00000+0",
            "SetNumber": "999",
            "Inclination": 64.9761,
            "RAAN": 93.0544,
            "Eccentricity": 0.0008655,
            "ArgumentOfPerigee": 292.0102,
            "MeanAnomaly": 67.8984,
            "MeanMotion": 2.1310396,
            "RevolutionNumber": "938"
        }
    ]
}